NORAD_CAT_ID,OBJECT_NAME,OBJECT_TYPE,EPOCH,MEAN_MOTION,ECCENTRICITY,INCLINATION,RA_OF_ASC_NODE,ARG_OF_PERICENTER,MEAN_ANOMALY,BSTAR,MEAN_MOTION_DOT,MEAN_MOTION_DDOT,TLE_LINE0,TLE_LINE1,TLE_LINE2,SEMIMAJOR_AXIS,PERIOD,APOGEE,PERIGEE,DECAYED
50843.0,STARLINK-3325,PAYLOAD,2023-02-08 14:39:07,15.08850483,0.0001343,53.2135,189.8018,89.701,270.4136,3.5907e-05,2.84e-06,0.0,0 STARLINK-3325,1 50843U 22001AS  23039.61049908  .00000284  00000-0  35907-4 0  9991,2 50843  53.2135 189.8018 0001343  89.7010 270.4136 15.08850483 61611,6917.848,95.437,540.642,538.784,0.0
50843.0,STARLINK-3325,PAYLOAD,2023-02-08 16:14:29,15.08869856,0.0001434,53.2136,189.5049,83.9863,276.1293,-0.00022128,-3.811e-05,0.0,0 STARLINK-3325,1 50843U 22001AS  23039.67673251 -.00003811  00000-0 -22128-3 0  9992,2 50843  53.2136 189.5049 0001434  83.9863 276.1293 15.08869856 61628,6917.789,95.436,540.646,538.662,0.0
50843.0,STARLINK-3325,PAYLOAD,2023-02-08 19:25:15,15.08876292,0.000128,53.2133,188.9098,86.4916,273.6223,-0.00014944,-2.668e-05,0.0,0 STARLINK-3325,1 50843U 22001AS  23039.80920352 -.00002668  00000-0 -14944-3 0  9990,2 50843  53.2133 188.9098 0001280  86.4916 273.6223 15.08876292 60444,6917.769,95.435,540.52,538.749,0.0
50843.0,STARLINK-3325,PAYLOAD,2023-02-09 03:22:12,15.08843953,0.0001333,53.2147,187.4227,85.2942,274.8203,-0.00019113,-3.329e-05,0.0,0 STARLINK-3325,1 50843U 22001AS  23040.14041837 -.00003329  00000-0 -19113-3 0  9999,2 50843  53.2147 187.4227 0001333  85.2942 274.8203 15.08843953 61699,6917.868,95.437,540.655,538.811,0.0
50843.0,STARLINK-3325,PAYLOAD,2023-02-09 14:29:54,15.0883383,0.0001029,53.2147,185.3392,105.2454,254.8651,0.00010957,1.456e-05,0.0,0 STARLINK-3325,1 50843U 22001AS  23040.60410730  .00001456  00000-0  10957-3 0  9996,2 50843  53.2147 185.3392 0001029 105.2454 254.8651 15.08833830 61768,6917.899,95.438,540.476,539.052,0.0
50843.0,STARLINK-3325,PAYLOAD,2023-02-09 20:51:27,15.08844051,0.000114,53.2128,184.1493,102.52,257.592,0.00027403,4.077e-05,0.0,0 STARLINK-3325,1 50843U 22001AS  23040.86906335  .00004077  00000-0  27403-3 0  9991,2 50843  53.2128 184.1493 0001140 102.5200 257.5920 15.08844051 60607,6917.868,95.437,540.522,538.944,0.0
50843.0,STARLINK-3325,PAYLOAD,2023-02-10 15:56:05,15.08841619,0.0001309,53.2123,180.5835,88.3548,271.7594,9.9541e-05,1.297e-05,0.0,0 STARLINK-3325,1 50843U 22001AS  23041.66394841  .00001297  00000-0  99541-4 0  9997,2 50843  53.2123 180.5835 0001309  88.3548 271.7594 15.08841619 61923,6917.875,95.437,540.646,538.835,0.0
50843.0,STARLINK-3325,PAYLOAD,2023-02-10 20:42:13,15.08863061,9.5e-05,53.2131,179.6904,80.8349,279.2751,0.00056674,8.749e-05,0.0,0 STARLINK-3325,1 50843U 22001AS  23041.86266010  .00008749  00000-0  56674-3 0  9993,2 50843  53.2131 179.6904 0000950  80.8349 279.2751 15.08863061 60758,6917.81,95.436,540.332,539.018,0.0
50843.0,STARLINK-3325,PAYLOAD,2023-02-11 12:36:06,15.08837442,0.0001161,53.2123,176.7176,96.2187,263.8937,0.00012994,1.781e-05,0.0,0 STARLINK-3325,1 50843U 22001AS  23042.52507360  .00001781  00000-0  12994-3 0  9999,2 50843  53.2123 176.7176 0001161  96.2187 263.8937 15.08837442 62058,6917.888,95.438,540.556,538.95,0.0
50843.0,STARLINK-3325,PAYLOAD,2023-02-11 20:33:01,15.08871769,6.96e-05,53.2134,175.2309,65.0449,295.0616,0.0025944,0.0004128,0.0,0 STARLINK-3325,1 50843U 22001AS  23042.85626820  .00041280  00000-0  25944-2 0  9994,2 50843  53.2134 175.2309 0000696  65.0449 295.0616 15.08871769 62106,6917.783,95.436,540.13,539.167,0.0
50843.0,STARLINK-3325,PAYLOAD,2023-02-12 09:16:07,15.08837834,3.75e-05,53.2135,172.8525,86.6662,273.4373,0.0012951,0.00020383,0.0,0 STARLINK-3325,1 50843U 22001AS  23043.38619507  .00020383  00000-0  12951-2 0  9992,2 50843  53.2135 172.8525 0000375  86.6662 273.4373 15.08837834 60989,6917.887,95.438,540.011,539.493,0.0
50843.0,STARLINK-3325,PAYLOAD,2023-02-12 15:37:39,15.08867659,5.81e-05,53.213,171.6624,80.4213,279.6845,0.0026449,0.00042089,0.0,0 STARLINK-3325,1 50843U 22001AS  23043.65115168  .00042089  00000-0  26449-2 0  9990,2 50843  53.2130 171.6624 0000581  80.4213 279.6845 15.08867659 62223,6917.796,95.436,540.063,539.259,0.0
50843.0,STARLINK-3325,PAYLOAD,2023-02-13 01:09:57,15.08854401,9.58e-05,53.2131,169.878,239.9523,120.1374,0.00054472,8.395e-05,0.0,0 STARLINK-3325,1 50843U 22001AS  23044.04858517  .00008395  00000-0  54472-3 0  9996,2 50843  53.2131 169.8780 0000958 239.9523 120.1374 15.08854401 62283,6917.836,95.437,540.364,539.039,0.0
50843.0,STARLINK-3325,PAYLOAD,2023-02-14 01:00:44,15.08861648,4.67e-05,53.2126,165.4176,101.378,258.7265,0.0012265,0.00019297,0.0,0 STARLINK-3325,1 50843U 22001AS  23045.04218639  .00019297  00000-0  12265-2 0  9998,2 50843  53.2126 165.4176 0000467 101.3780 258.7265 15.08861648 62435,6917.814,95.436,540.002,539.356,0.0
50843.0,STARLINK-3325,PAYLOAD,2023-02-14 20:05:20,15.08904271,7.22e-05,53.212,161.8486,90.6303,269.4772,0.002411,0.0003836,0.0,0 STARLINK-3325,1 50843U 22001AS  23045.83704844  .00038360  00000-0  24110-2 0  9997,2 50843  53.2120 161.8486 0000722  90.6303 269.4772 15.08904271 61350,6917.684,95.433,540.048,539.049,0.0
50843.0,STARLINK-3325,PAYLOAD,2023-02-15 00:51:31,15.0884246,6.09e-05,53.2119,160.9565,69.1858,290.9199,-0.001188,-0.00019146,0.0,0 STARLINK-3325,1 50843U 22001AS  23046.03577643 -.00019146  00000-0 -11880-2 0  9998,2 50843  53.2119 160.9565 0000609  69.1858 290.9199 15.08842460 62585,6917.873,95.437,540.159,539.317,0.0
50843.0,STARLINK-3325,PAYLOAD,2023-02-15 13:34:37,15.0882239,8.92e-05,53.2111,158.5771,75.3185,284.7906,0.0010446,0.00016368,0.0,0 STARLINK-3325,1 50843U 22001AS  23046.56570823  .00016368  00000-0  10446-2 0  9997,2 50843  53.2111 158.5771 0000892  75.3185 284.7906 15.08822390 61468,6917.934,95.439,540.416,539.182,0.0
50843.0,STARLINK-3325,PAYLOAD,2023-02-15 19:56:10,15.08829917,0.0001,53.2112,157.3878,70.9325,289.1775,0.0019345,0.00030625,0.0,0 STARLINK-3325,1 50843U 22001AS  23046.83067295  .00030625  00000-0  19345-2 0  9990,2 50843  53.2112 157.3878 0001000  70.9325 289.1775 15.08829917 61503,6917.911,95.438,540.468,539.084,0.0
50843.0,STARLINK-3325,PAYLOAD,2023-02-16 13:25:23,15.08893046,0.000101,53.2113,154.1144,97.3323,262.7784,0.0035426,0.00056628,0.0,0 STARLINK-3325,1 50843U 22001AS  23047.55930085  .00056628  00000-0  35426-2 0  9995,2 50843  53.2113 154.1144 0001010  97.3323 262.7784 15.08893046 62813,6917.718,95.434,540.282,538.885,0.0
50843.0,STARLINK-3325,PAYLOAD,2023-02-16 16:36:09,15.08917415,7.93e-05,53.2123,153.5206,78.6142,281.4939,0.0044027,0.00070633,0.0,0 STARLINK-3325,1 50843U 22001AS  23047.69177527  .00070633  00000-0  44027-2 0  9993,2 50843  53.2123 153.5206 0000793  78.6142 281.4939 15.08917415 61630,6917.644,95.433,540.057,538.96,0.0
50843.0,STARLINK-3325,PAYLOAD,2023-02-17 13:16:11,15.0882268,0.0001291,53.2131,149.6534,115.5243,244.5882,0.0024613,0.00039082,0.0,0 STARLINK-3325,1 50843U 22001AS  23048.55290738  .00039082  00000-0  24613-2 0  9991,2 50843  53.2131 149.6534 0001291 115.5243 244.5882 15.08822680 62969,6917.933,95.439,540.691,538.905,0.0
50843.0,STARLINK-3325,PAYLOAD,2023-02-17 18:02:20,15.08837642,0.0001341,53.2132,148.7637,111.3297,248.7838,0.0019097,0.00030234,0.0,0 STARLINK-3325,1 50843U 22001AS  23048.75162887  .00030234  00000-0  19097-2 0  9996,2 50843  53.2132 148.7637 0001341 111.3297 248.7838 15.08837642 61794,6917.888,95.438,540.68,538.825,0.0
50843.0,STARLINK-3325,PAYLOAD,2023-02-18 13:06:59,15.08822649,0.000145,53.2139,145.1971,101.0327,259.0828,0.0014275,0.00022493,0.0,0 STARLINK-3325,1 50843U 22001AS  23049.54652681  .00022493  00000-0  14275-2 0  9991,2 50843  53.2139 145.1971 0001450 101.0327 259.0828 15.08822649 61913,6917.933,95.439,540.802,538.795,0.0
50843.0,STARLINK-3325,PAYLOAD,2023-02-18 22:39:18,15.08827736,0.000131,53.2152,143.4099,95.3265,264.7876,0.0010857,0.00017027,0.0,0 STARLINK-3325,1 50843U 22001AS  23049.94396954  .00017027  00000-0  10857-2 0  9992,2 50843  53.2152 143.4099 0001310  95.3265 264.7876 15.08827736 63179,6917.918,95.438,540.689,538.877,0.0
50843.0,STARLINK-3325,PAYLOAD,2023-02-19 12:57:47,15.08844603,0.0001184,53.2131,140.7363,97.68,262.4327,0.0012399,0.00019503,0.0,0 STARLINK-3325,1 50843U 22001AS  23050.54012909  .00019503  00000-0  12399-2 0  9999,2 50843  53.2131 140.7363 0001184  97.6800 262.4327 15.08844603 62064,6917.866,95.437,540.55,538.912,0.0
50843.0,STARLINK-3325,PAYLOAD,2023-02-19 22:30:06,15.0884184,0.0002311,53.2143,138.9499,83.5947,276.5309,0.00031524,4.733e-05,0.0,0 STARLINK-3325,1 50843U 22001AS  23050.93757165  .00004733  00000-0  31524-3 0  9993,2 50843  53.2143 138.9499 0002311  83.5947 276.5309 15.08841840 63321,6917.875,95.437,541.338,538.141,0.0
50843.0,STARLINK-3325,PAYLOAD,2023-02-20 06:27:01,15.08856659,8.76e-05,53.2153,137.4649,90.8073,269.302,0.00083879,0.00013093,0.0,0 STARLINK-3325,1 50843U 22001AS  23051.26876257  .00013093  00000-0  83879-3 0  9993,2 50843  53.2153 137.4649 0000876  90.8073 269.3020 15.08856659 63377,6917.829,95.437,540.3,539.088,0.0
50843.0,STARLINK-3325,PAYLOAD,2023-02-20 12:48:33,15.08869796,0.0001089,53.2139,136.2753,100.3164,259.7951,0.0016635,0.00026307,0.0,0 STARLINK-3325,1 50843U 22001AS  23051.53371848  .00026307  00000-0  16635-2 0  9996,2 50843  53.2139 136.2753 0001089 100.3164 259.7951 15.08869796 62213,6917.789,95.436,540.408,538.901,0.0
50843.0,STARLINK-3325,PAYLOAD,2023-02-20 15:59:19,15.08878607,0.000108,53.2136,135.6809,99.1712,260.9402,0.0018898,0.00029948,0.0,0 STARLINK-3325,1 50843U 22001AS  23051.66619560  .00029948  00000-0  18898-2 0  9993,2 50843  53.2136 135.6809 0001080  99.1712 260.9402 15.08878607 63431,6917.762,95.435,540.375,538.88,0.0
50843.0,STARLINK-3325,PAYLOAD,2023-02-21 04:42:24,15.08856559,0.0001568,53.2137,133.3019,92.2348,267.8824,0.0010822,0.00016985,0.0,0 STARLINK-3325,1 50843U 22001AS  23052.19611770  .00016985  00000-0  10822-2 0  9993,2 50843  53.2137 133.3019 0001568  92.2348 267.8824 15.08856559 63515,6917.83,95.437,540.779,538.61,0.0
